[
    {
        "CCSDS_OMM_VERS": "3.0",
        "COMMENT": "GENERATED VIA SPACE-TRACK.ORG API",
        "CREATION_DATE": "2025-04-14T03:05:54",
        "ORIGINATOR": "18 SPCS",
        "OBJECT_NAME": "BEIDOU 10",
        "OBJECT_ID": "2011-073A",
        "CENTER_NAME": "EARTH",
        "REF_FRAME": "TEME",
        "TIME_SYSTEM": "UTC",
        "MEAN_ELEMENT_THEORY": "SGP4",
        "EPOCH": "2025-04-12T22:41:38.634720",
        "MEAN_MOTION": "1.00263768",
        "ECCENTRICITY": "0.01021050",
        "INCLINATION": "48.4638",
        "RA_OF_ASC_NODE": "276.8460",
        "ARG_OF_PERICENTER": "219.2264",
        "MEAN_ANOMALY": "141.1464",
        "EPHEMERIS_TYPE": "0",
        "CLASSIFICATION_TYPE": "U",
        "NORAD_CAT_ID": "37948",
        "ELEMENT_SET_NO": "999",
        "REV_AT_EPOCH": "4882",
        "BSTAR": "0.00000000000000",
        "MEAN_MOTION_DOT": "-0.00000182",
        "MEAN_MOTION_DDOT": "0.0000000000000",
        "SEMIMAJOR_AXIS": "42166.980",
        "PERIOD": "1436.212",
        "APOAPSIS": "36219.391",
        "PERIAPSIS": "35358.299",
        "OBJECT_TYPE": "PAYLOAD",
        "RCS_SIZE": "LARGE",
        "COUNTRY_CODE": "PRC",
        "LAUNCH_DATE": "2011-12-01",
        "SITE": "XSC",
        "DECAY_DATE": null,
        "FILE": "4701263",
        "GP_ID": "285535742",
        "TLE_LINE0": "0 BEIDOU 10",
        "TLE_LINE1": "1 37948U 11073A   25102.94558605 -.00000182  00000-0  00000-0 0  9997",
        "TLE_LINE2": "2 37948  48.4638 276.8460 0102105 219.2264 141.1464  1.00263768 48820"
    }
]